{
  "norad_id": 64325,
  "name": "STARLINK-11698 [DTC]",
  "history": [
    {
      "epoch": "2026-03-28T21:02:56.328576Z",
      "apogee_km": 357.6696275466784,
      "perigee_km": 355.1696254357921,
      "latitude_deg": 6.836124444979823e-06,
      "longitude_deg": 131.3914180744419,
      "height_km": 356.20484660658985,
      "semi_major_axis_km": 6734.556626491235,
      "eccentricity": 0.00018561,
      "inclination_deg": 42.9989,
      "raan_deg": 273.4173,
      "arg_perigee_deg": 269.4253,
      "mean_anomaly_deg": 90.6402,
      "mean_motion_rev_day": 15.70866393
    },
    {
      "epoch": "2026-03-29T04:40:45.006240Z",
      "apogee_km": 356.9268731266993,
      "perigee_km": 355.64463903394153,
      "latitude_deg": 5.619457920154119e-06,
      "longitude_deg": 14.710832531893812,
      "height_km": 355.7384851546636,
      "semi_major_axis_km": 6734.42275608032,
      "eccentricity": 9.52e-05,
      "inclination_deg": 42.999,
      "raan_deg": 271.5029,
      "arg_perigee_deg": 299.8541,
      "mean_anomaly_deg": 60.2232,
      "mean_motion_rev_day": 15.70913233
    },
    {
      "epoch": "2026-03-29T21:27:53.458272Z",
      "apogee_km": 357.8479307805819,
      "perigee_km": 354.84569789615034,
      "latitude_deg": 1.1838202117793775e-05,
      "longitude_deg": 118.01825929017737,
      "height_km": 356.69538410960274,
      "semi_major_axis_km": 6734.483814338366,
      "eccentricity": 0.0002229,
      "inclination_deg": 43.0002,
      "raan_deg": 267.2849,
      "arg_perigee_deg": 247.4496,
      "mean_anomaly_deg": 112.6136,
      "mean_motion_rev_day": 15.70891869
    },
    {
      "epoch": "2026-03-30T05:05:43.101024Z",
      "apogee_km": 357.1494593330999,
      "perigee_km": 355.56819971232835,
      "latitude_deg": 3.518693168865236e-07,
      "longitude_deg": 1.3317308350071673,
      "height_km": 355.584472564996,
      "semi_major_axis_km": 6734.495829522714,
      "eccentricity": 0.0001174,
      "inclination_deg": 43.0002,
      "raan_deg": 265.3686,
      "arg_perigee_deg": 46.4545,
      "mean_anomaly_deg": 313.642,
      "mean_motion_rev_day": 15.70887665
    },
    {
      "epoch": "2026-03-30T12:43:29.941824Z",
      "apogee_km": 359.615232690604,
      "perigee_km": 353.2159261385923,
      "latitude_deg": 1.1021156215295482e-05,
      "longitude_deg": -115.3438671613271,
      "height_km": 355.1794920350227,
      "semi_major_axis_km": 6734.552579414598,
      "eccentricity": 0.00047511,
      "inclination_deg": 42.9987,
      "raan_deg": 263.4515,
      "arg_perigee_deg": 288.4094,
      "mean_anomaly_deg": 71.6257,
      "mean_motion_rev_day": 15.70867809
    },
    {
      "epoch": "2026-03-30T20:21:18.688608Z",
      "apogee_km": 357.2556195345842,
      "perigee_km": 355.5066651730158,
      "latitude_deg": 1.3947886895826056e-05,
      "longitude_deg": 127.97456324278353,
      "height_km": 356.1676218248269,
      "semi_major_axis_km": 6734.5181423538,
      "eccentricity": 0.00012985,
      "inclination_deg": 42.998,
      "raan_deg": 261.5364,
      "arg_perigee_deg": 269.0596,
      "mean_anomaly_deg": 91.0123,
      "mean_motion_rev_day": 15.70879858
    },
    {
      "epoch": "2026-03-31T17:43:08.404608Z",
      "apogee_km": 357.2009322144768,
      "perigee_km": 355.5536700164239,
      "latitude_deg": -3.929898287561461e-06,
      "longitude_deg": 161.2731148895376,
      "height_km": 356.82678660966775,
      "semi_major_axis_km": 6734.5143011154505,
      "eccentricity": 0.0001223,
      "inclination_deg": 43.0004,
      "raan_deg": 256.1695,
      "arg_perigee_deg": 145.5436,
      "mean_anomaly_deg": 214.5511,
      "mean_motion_rev_day": 15.70881202
    },
    {
      "epoch": "2026-04-01T12:01:51.000672Z",
      "apogee_km": 357.9154286649318,
      "perigee_km": 353.4805249492074,
      "latitude_deg": -1.5218810526769739e-05,
      "longitude_deg": -118.7560199904062,
      "height_km": 356.2455973531959,
      "semi_major_axis_km": 6733.834976807069,
      "eccentricity": 0.0003293,
      "inclination_deg": 43.0,
      "raan_deg": 251.5699,
      "arg_perigee_deg": 249.568,
      "mean_anomaly_deg": 110.4834,
      "mean_motion_rev_day": 15.71118919
    },
    {
      "epoch": "2026-04-02T18:33:02.128320Z",
      "apogee_km": 357.56479460905666,
      "perigee_km": 355.0752005461918,
      "latitude_deg": -1.7247399049700557e-05,
      "longitude_deg": 134.52831189202365,
      "height_km": 356.169946416573,
      "semi_major_axis_km": 6734.456997577624,
      "eccentricity": 0.00018484,
      "inclination_deg": 43.0019,
      "raan_deg": 243.904,
      "arg_perigee_deg": 266.4561,
      "mean_anomaly_deg": 93.6095,
      "mean_motion_rev_day": 15.70901252
    },
    {
      "epoch": "2026-04-03T11:20:10.861152Z",
      "apogee_km": 358.14611580917153,
      "perigee_km": 353.17334160095743,
      "latitude_deg": -6.861369473839637e-06,
      "longitude_deg": -122.16243034249554,
      "height_km": 356.49278136716674,
      "semi_major_axis_km": 6733.796728705064,
      "eccentricity": 0.00036924,
      "inclination_deg": 43.0002,
      "raan_deg": 239.689,
      "arg_perigee_deg": 244.7808,
      "mean_anomaly_deg": 115.2677,
      "mean_motion_rev_day": 15.71132305
    },
    {
      "epoch": "2026-04-04T17:51:24.490944Z",
      "apogee_km": 357.4635354083448,
      "perigee_km": 354.9947167865166,
      "latitude_deg": -3.596939841316368e-05,
      "longitude_deg": 131.1121166167671,
      "height_km": 356.48618266538466,
      "semi_major_axis_km": 6734.36612609743,
      "eccentricity": 0.0001833,
      "inclination_deg": 42.9999,
      "raan_deg": 232.0238,
      "arg_perigee_deg": 246.8919,
      "mean_anomaly_deg": 113.1755,
      "mean_motion_rev_day": 15.70933048
    },
    {
      "epoch": "2026-04-05T15:13:14.531808Z",
      "apogee_km": 356.99408065226,
      "perigee_km": 355.74967810152793,
      "latitude_deg": -1.620161606367477e-05,
      "longitude_deg": 164.41094851071043,
      "height_km": 356.52658014498525,
      "semi_major_axis_km": 6734.508879376894,
      "eccentricity": 9.239e-05,
      "inclination_deg": 43.0001,
      "raan_deg": 226.6585,
      "arg_perigee_deg": 232.0205,
      "mean_anomaly_deg": 128.0579,
      "mean_motion_rev_day": 15.70883099
    },
    {
      "epoch": "2026-04-05T16:44:47.947488Z",
      "apogee_km": 357.9913623734856,
      "perigee_km": 354.7069534742659,
      "latitude_deg": 4.228584997344431e-05,
      "longitude_deg": 141.07461027345857,
      "height_km": 356.4042233967062,
      "semi_major_axis_km": 6734.486157923876,
      "eccentricity": 0.00024385,
      "inclination_deg": 43.0005,
      "raan_deg": 226.274,
      "arg_perigee_deg": 260.1176,
      "mean_anomaly_deg": 99.9417,
      "mean_motion_rev_day": 15.70891049
    },
    {
      "epoch": "2026-04-07T14:31:35.433408Z",
      "apogee_km": 356.92693917772795,
      "perigee_km": 356.03123523812883,
      "latitude_deg": 2.1179003486190254e-05,
      "longitude_deg": 160.99981304050766,
      "height_km": 356.68097316906466,
      "semi_major_axis_km": 6734.616087207928,
      "eccentricity": 6.65e-05,
      "inclination_deg": 43.0011,
      "raan_deg": 214.7772,
      "arg_perigee_deg": 196.0051,
      "mean_anomaly_deg": 164.0796,
      "mean_motion_rev_day": 15.70845589
    },
    {
      "epoch": "2026-04-08T07:18:45.193536Z",
      "apogee_km": 360.010070979597,
      "perigee_km": 352.02336467025634,
      "latitude_deg": -1.3884979842755742e-05,
      "longitude_deg": -95.69537199824308,
      "height_km": 354.45343788295617,
      "semi_major_axis_km": 6734.153717824926,
      "eccentricity": 0.000593,
      "inclination_deg": 42.9995,
      "raan_deg": 210.5621,
      "arg_perigee_deg": 289.5783,
      "mean_anomaly_deg": 70.4444,
      "mean_motion_rev_day": 15.71007374
    },
    {
      "epoch": "2026-04-09T13:49:56.678880Z",
      "apogee_km": 357.37732418490486,
      "perigee_km": 355.42296150605125,
      "latitude_deg": -2.780707274740778e-05,
      "longitude_deg": 157.58784774192702,
      "height_km": 355.98438759612804,
      "semi_major_axis_km": 6734.537142845478,
      "eccentricity": 0.0001451,
      "inclination_deg": 43.0,
      "raan_deg": 202.8966,
      "arg_perigee_deg": 281.1072,
      "mean_anomaly_deg": 78.9632,
      "mean_motion_rev_day": 15.7087321
    },
    {
      "epoch": "2026-04-10T08:08:39.551424Z",
      "apogee_km": 358.4203035064611,
      "perigee_km": 354.4159370319494,
      "latitude_deg": -4.698597828784015e-06,
      "longitude_deg": -122.44210863978685,
      "height_km": 355.5625826569761,
      "semi_major_axis_km": 6734.555120269205,
      "eccentricity": 0.0002973,
      "inclination_deg": 43.0005,
      "raan_deg": 198.2973,
      "arg_perigee_deg": 288.3153,
      "mean_anomaly_deg": 71.7391,
      "mean_motion_rev_day": 15.7086692
    },
    {
      "epoch": "2026-04-11T13:08:17.971872Z",
      "apogee_km": 356.9787505015347,
      "perigee_km": 355.6789985877476,
      "latitude_deg": -2.2908508992375295e-05,
      "longitude_deg": 154.1752428121699,
      "height_km": 356.0008478479228,
      "semi_major_axis_km": 6734.465874544641,
      "eccentricity": 9.65e-05,
      "inclination_deg": 43.0003,
      "raan_deg": 191.0155,
      "arg_perigee_deg": 278.8636,
      "mean_anomaly_deg": 81.2122,
      "mean_motion_rev_day": 15.70898146
    },
    {
      "epoch": "2026-04-13T06:20:24.736416Z",
      "apogee_km": 357.4836260712409,
      "perigee_km": 355.16293105924797,
      "latitude_deg": 4.955349938415005e-07,
      "longitude_deg": -115.89361993593877,
      "height_km": 356.4734703974297,
      "semi_major_axis_km": 6734.460278565244,
      "eccentricity": 0.0001723,
      "inclination_deg": 43.0,
      "raan_deg": 180.6669,
      "arg_perigee_deg": 251.008,
      "mean_anomaly_deg": 109.0601,
      "mean_motion_rev_day": 15.70900104
    }
  ]
}